{"type": "FeatureCollection", "features": [{"type": "Feature", "geometry": {"type": "Polygon", "coordinates": [[[-110.24761456006351, 44.53615970800977], [-110.28487933522759, 44.533446251390686], [-110.35188142517634, 44.556730830312304], [-110.32018969081011, 44.74563448100354], [-110.24857440702746, 44.74397940995156], [-110.05282424176627, 44.67329535266056], [-110.24761456006351, 44.53615970800977]]]}, "properties": {"pack": "Mollies"}}, {"type": "Feature", "geometry": {"type": "Polygon", "coordinates": [[[-110.86576252557786, 44.7711379292394], [-110.86557703453632, 44.70396223291312], [-110.90829362138946, 44.63185886645287], [-111.08242313838313, 44.69122818248244], [-111.14897210685388, 45.06987978880954], [-111.12053836868736, 45.086269615137866], [-110.94618781126948, 45.016583248914785], [-110.86576252557786, 44.7711379292394]]]}, "properties": {"pack": "Cougar Creek"}}, {"type": "Feature", "geometry": {"type": "Polygon", "coordinates": [[[-110.3750189707803, 44.87389630226319], [-110.39121762777344, 44.84326847490656], [-110.39158455689322, 44.8432704303246], [-110.4059055089634, 44.84476817068044], [-110.60853302811113, 44.98059243265994], [-110.58760718674243, 45.00329369342832], [-110.53050251587301, 44.98692374102366], [-110.37905943964518, 44.94078572742427], [-110.3750189707803, 44.87389630226319]]]}, "properties": {"pack": "Rescue Creek"}}, {"type": "Feature", "geometry": {"type": "Polygon", "coordinates": [[[-110.4450426365689, 44.62434465249381], [-110.81513662374013, 44.46106494031657], [-110.84165212957699, 44.473501591543645], [-110.87833804484433, 44.53538618233096], [-110.95361858634108, 44.69352611707059], [-110.7092827292465, 45.00493751473234], [-110.65251876863599, 44.99965681744639], [-110.39007663317014, 44.865056602945145], [-110.4450426365689, 44.62434465249381]]]}, "properties": {"pack": "Wapiti Lake"}}, {"type": "Feature", "geometry": {"type": "Polygon", "coordinates": [[[-110.51694897731323, 44.937770386973774], [-110.53654885156669, 44.902401525722354], [-110.56793547653825, 44.890659829173195], [-110.77716389286135, 44.92103859885522], [-110.78355518280507, 44.92298633141422], [-110.81372414843523, 45.0484816904331], [-110.77386056348243, 45.0523795290136], [-110.673709636862, 45.02608591094462], [-110.59355277877177, 45.004053165673426], [-110.51694897731323, 44.937770386973774]]]}, "properties": {"pack": "8 Mile"}}, {"type": "Feature", "geometry": {"type": "Polygon", "coordinates": [[[-110.6402829646738, 44.27182973278602], [-111.16140514144088, 44.15398040105886], [-111.22086168129793, 44.20267841245462], [-110.86523629857501, 44.56228036841095], [-110.6402829646738, 44.27182973278602]]]}, "properties": {"pack": "Firehole River"}}, {"type": "Feature", "geometry": {"type": "Polygon", "coordinates": [[[-110.13712301088907, 44.88400431604469], [-110.13147416779921, 44.83021867914462], [-110.33725736395219, 44.86806607625363], [-110.36534955115758, 44.879388281265875], [-110.52986403308932, 44.97657786776614], [-110.50816383715079, 45.00179993961193], [-110.40315453673728, 45.026333717900876], [-110.24235861025927, 44.970855476984454], [-110.13712301088907, 44.88400431604469]]]}, "properties": {"pack": "Willow Creek"}}, {"type": "Feature", "geometry": {"type": "Polygon", "coordinates": [[[-110.05156965878892, 44.79956963882281], [-110.13099697340488, 44.81819711543264], [-110.15350021784754, 44.82407353561532], [-110.16760143144573, 44.840957263755506], [-110.1767328058174, 44.87321513590532], [-110.17617420237629, 44.878648386747464], [-110.07192733869401, 44.96016350685168], [-110.00141399704694, 44.92315552044995], [-110.05156965878892, 44.79956963882281]]]}, "properties": {"pack": "Shrimp Lake"}}, {"type": "Feature", "geometry": {"type": "Polygon", "coordinates": [[[-110.6067622761955, 44.95574089291929], [-110.56416573608412, 44.90688526814774], [-110.56143416352211, 44.88462164272729], [-110.66349971072147, 44.95526501580037], [-110.66588348966434, 44.957396485626724], [-110.6925449091547, 44.99327219162424], [-110.67633069825082, 45.01147428823227], [-110.66649881289216, 45.01092388981315], [-110.6067622761955, 44.95574089291929]]]}, "properties": {"pack": "Lupine Creek"}}, {"type": "Feature", "geometry": {"type": "Polygon", "coordinates": [[[-110.13712301088907, 44.88400431604469], [-110.13147416779921, 44.83021867914462], [-110.33725736395219, 44.86806607625363], [-110.36534955115758, 44.879388281265875], [-110.52986403308932, 44.97657786776614], [-110.50816383715079, 45.00179993961193], [-110.40315453673728, 45.026333717900876], [-110.24235861025927, 44.970855476984454], [-110.13712301088907, 44.88400431604469]]]}, "properties": {"pack": "Junction Butte"}}]}